{
  "norad_id": 65697,
  "name": "STARLINK-35113",
  "history": [
    {
      "epoch": "2026-03-28T20:35:00.744000",
      "apogee_km": 475.84007299285804,
      "perigee_km": 474.53300712729833,
      "latitude_deg": 51.94028126922118,
      "longitude_deg": 112.03415999980643,
      "semi_major_axis_km": 6853.323540060078,
      "eccentricity": 9.536e-05,
      "inclination_deg": 53.1587,
      "raan_deg": 256.2526,
      "arg_perigee_deg": 88.6205,
      "mean_anomaly_deg": 271.4905,
      "mean_motion_rev_day": 15.30209555
    }
  ]
}